ORBCOMM FM103           
1 40091U 14040F   25298.84390918  .00000938  00000+0  23679-3 0  9990
2 40091  47.0037 120.6662 0001732 175.7281 184.3619 14.58405607583170
ORBCOMM FM114           
1 41179U 15081A   25298.65635793  .00001044  00000+0  25938-3 0  9995
2 41179  47.0043  30.5305 0002837 235.3090 124.7528 14.58445396523514
ORBCOMM FM119           
1 41180U 15081B   25299.06129181  .00000941  00000+0  23753-3 0  9990
2 41180  47.0007 297.9665 0002033 284.8860  75.1801 14.58382958524828
ORBCOMM FM105           
1 41181U 15081C   25299.08773068  .00000367  00000+0  14806-3 0  9993
2 41181  47.0023 315.5511 0002062 215.7884 144.2859 14.45342127519684
ORBCOMM FM110           
1 41182U 15081D   25298.64783694  .00001350  00000+0  32418-3 0  9993
2 41182  47.0035  30.0960 0001428  83.9254 276.1795 14.58482889523386
ORBCOMM FM118           
1 41183U 15081E   25298.95499947  .00001173  00000+0  28681-3 0  9993
2 41183  47.0055  28.9181 0002103  18.4011 341.6950 14.58441098523530
ORBCOMM FM112           
1 41184U 15081F   25299.02801260  .00001143  00000+0  28004-3 0  9994
2 41184  46.9992 297.1528 0002135 248.4795 111.5863 14.58506663524766
ORBCOMM FM113           
1 41185U 15081G   25299.07359157  .00000967  00000+0  24263-3 0  9999
2 41185  47.0010 297.2841 0002042 261.1040  98.9614 14.58501792524750
